[{"OBJECT_NAME":"PISAT","OBJECT_ID":"2016-059B","EPOCH":"2026-03-09T23:04:32.673792","MEAN_MOTION":14.68774579,"ECCENTRICITY":0.00295599,"INCLINATION":97.8192,"RA_OF_ASC_NODE":73.6916,"ARG_OF_PERICENTER":159.8662,"MEAN_ANOMALY":200.3717,"EPHEMERIS_TYPE":0,"CLASSIFICATION_TYPE":"U","NORAD_CAT_ID":41784,"ELEMENT_SET_NO":999,"REV_AT_EPOCH":50517,"BSTAR":0.00024765748,"MEAN_MOTION_DOT":1.407e-5,"MEAN_MOTION_DDOT":0},{"OBJECT_NAME":"COSMOS 2251 DEB","OBJECT_ID":"1993-036BQA","EPOCH":"2026-02-08T04:34:20.118432","MEAN_MOTION":14.79329439,"ECCENTRICITY":0.00859513,"INCLINATION":73.9998,"RA_OF_ASC_NODE":211.0646,"ARG_OF_PERICENTER":187.26,"MEAN_ANOMALY":172.734,"EPHEMERIS_TYPE":0,"CLASSIFICATION_TYPE":"U","NORAD_CAT_ID":37975,"ELEMENT_SET_NO":999,"REV_AT_EPOCH":70594,"BSTAR":0.0042950145,"MEAN_MOTION_DOT":0.00034176,"MEAN_MOTION_DDOT":0}]
